M2 PATHFINDER           
1 45727U 20037E   26068.47969609  .00004468  00000+0  32592-3 0  9994
2 45727  97.8158 258.5983 0012405 127.8041 232.4310 15.04175941310501
STARLINK-35190          
1 65663U 25211M   26068.69457240  .00003083  00000+0  21778-3 0  9997
2 65663  97.6022 114.0870 0001112  95.7198 264.4156 15.05653090 27044
